OBJECT_NAME,OBJECT_ID,EPOCH,MEAN_MOTION,ECCENTRICITY,INCLINATION,RA_OF_ASC_NODE,ARG_OF_PERICENTER,MEAN_ANOMALY,EPHEMERIS_TYPE,CLASSIFICATION_TYPE,NORAD_CAT_ID,ELEMENT_SET_NO,REV_AT_EPOCH,BSTAR,MEAN_MOTION_DOT,MEAN_MOTION_DDOT
AMC-3,1997-050A,2024-07-07T04:16:01.447392,1.00271474,.0002417,6.3960,71.9738,46.2933,159.3398,0,U,24936,999,4531,0,-.269E-5,0
ASTRA 2A,1998-050A,2024-07-07T20:20:19.612608,1.00270425,.0003137,5.2992,77.2397,24.1659,187.1476,0,U,25462,999,9462,0,.62E-6,0
NSS-11,2000-059A,2024-07-07T19:11:21.099264,1.00270868,.0002707,0.2863,88.5759,13.3215,288.1709,0,U,26554,999,8706,0,.21E-6,0
AMC-6,2000-067A,2024-07-07T10:33:14.743008,1.00271320,.0002664,0.0124,30.5210,95.4713,179.1873,0,U,26580,999,8677,0,.101E-5,0
AMC-11,2004-017A,2024-07-07T12:16:42.543264,1.00272752,.0000951,0.0316,317.4852,141.4138,260.1241,0,U,28252,999,7375,0,-.53E-6,0
AMC-15,2004-041A,2024-07-07T16:07:53.954400,1.00271453,.0002251,0.0483,293.6627,154.3891,334.9804,0,U,28446,999,7223,0,-.92E-6,0
NSS-10,2005-003A,2024-07-07T11:18:06.952320,1.00272595,.0002659,4.6663,78.9687,24.7042,314.3031,0,U,28526,999,4603,0,-.258E-5,0
ASTRA 1KR,2006-012A,2024-07-07T13:17:17.760192,1.00271933,.0002216,0.0457,283.6899,241.6423,339.1656,0,U,29055,999,3860,0,.116E-5,0
ASTRA 1L,2007-016A,2024-07-07T11:34:09.353280,1.00272648,.0000879,0.0611,318.9265,83.1421,76.5673,0,U,31306,999,3788,0,.116E-5,0
ASTRA 4A,2007-057A,2024-07-07T13:13:02.123328,1.00271586,.0002702,0.0106,14.8711,79.2130,34.9610,0,U,32299,999,4454,0,.29E-6,0
AMC-21,2008-038B,2024-07-07T12:19:42.864384,1.00271849,.0002165,1.1086,89.7232,17.8208,238.4048,0,U,33275,999,5837,0,.32E-6,0
ASTRA 1M,2008-057A,2024-07-07T13:17:25.278720,1.00272378,.0005351,0.0136,53.2159,70.6440,20.6820,0,U,33436,999,3862,0,.116E-5,0
NSS-9,2009-008A,2024-07-07T12:03:42.844608,1.00271527,.0001916,0.0484,292.5532,161.9694,195.4127,0,U,33749,999,5640,0,.68E-6,0
SES-7 (PROTOSTAR 2),2009-027A,2024-07-08T01:44:05.837856,1.00271864,.00002,0.0234,50.2071,181.1498,189.4267,0,U,34941,999,5550,0,-.348E-5,0
NSS-12,2009-058A,2024-07-07T13:27:34.299360,1.00271662,.0003316,0.0858,278.1729,188.6909,78.0224,0,U,36032,999,5380,0,.68E-6,0
SES-1,2010-016A,2024-07-07T19:34:54.624000,1.00271635,.0002467,0.0263,319.1752,141.5301,18.2635,0,U,36516,999,5202,0,-.118E-5,0
ASTRA 3B,2010-021A,2024-07-08T03:02:53.357280,1.00272757,.0004314,0.0374,53.4299,49.9858,252.3732,0,U,36581,999,5154,0,.134E-5,0
SES-3,2011-035A,2024-07-08T04:09:42.052032,1.00271382,.0002894,0.0226,39.3132,69.6377,137.0695,0,U,37748,999,4758,0,-.104E-5,0
ASTRA 1N,2011-041A,2024-07-07T18:26:33.845856,1.00270551,.0004875,0.0520,16.5016,56.7525,148.7738,0,U,37775,999,4728,0,.116E-5,0
SES-2,2011-049A,2024-07-07T20:14:42.624960,1.00271589,.0002423,0.0204,331.3511,141.1064,30.4945,0,U,37809,999,4688,0,-.199E-5,0
QUETZSAT 1,2011-054A,2024-07-07T20:06:42.488928,1.00272828,.0002431,0.0127,0.1291,99.2790,51.5473,0,U,37826,999,4698,0,-.245E-5,0
SES-4,2012-007A,2024-07-07T14:48:37.695744,1.00271723,.0002473,0.0223,50.4763,58.4086,17.3315,0,U,38087,999,4537,0,-.172E-5,0
SES-5,2012-036A,2024-07-07T20:05:29.199264,1.00272924,.0001946,0.0661,295.1321,165.9324,131.5538,0,U,38652,999,4395,0,.31E-6,0
ASTRA 2F,2012-051A,2024-07-07T13:19:55.653600,1.00271386,.0002251,0.0718,247.7591,286.9166,339.4499,0,U,38778,999,3401,0,.146E-5,0
SES-6,2013-026A,2024-07-07T19:52:27.249024,1.00271309,.0001848,0.0169,12.9239,66.3532,104.5924,0,U,39172,999,4060,0,-.264E-5,0
ASTRA 2E,2013-056A,2024-07-07T13:20:03.172992,1.00271883,.0002559,0.0536,4.5995,93.7992,56.0692,0,U,39285,999,3931,0,.147E-5,0
SES-8,2013-071A,2024-07-07T13:39:01.302048,1.00271443,.0002536,0.0457,254.7872,208.2874,122.6712,0,U,39460,999,3731,0,-.273E-5,0
ASTRA 5B,2014-011B,2024-07-07T18:27:41.515200,1.00269951,.0001833,0.0694,308.6258,166.8876,111.1092,0,U,39617,999,3775,0,.134E-5,0
