AMC-3                   
1 24936U 97050A   24189.17779453 -.00000269  00000+0  00000+0 0  9998
2 24936   6.3960  71.9738 0002417  46.2933 159.3398  1.00271474 45313
ASTRA 2A                
1 25462U 98050A   24189.84744922  .00000062  00000+0  00000+0 0  9991
2 25462   5.2992  77.2397 0003137  24.1659 187.1476  1.00270425 94620
NSS-11                  
1 26554U 00059A   24189.79954976  .00000021  00000+0  00000+0 0  9997
2 26554   0.2863  88.5759 0002707  13.3215 288.1709  1.00270868 87064
AMC-6                   
1 26580U 00067A   24189.43975397  .00000101  00000+0  00000+0 0  9995
2 26580   0.0124  30.5210 0002664  95.4713 179.1873  1.00271320 86778
AMC-11                  
1 28252U 04017A   24189.51160351 -.00000053  00000+0  00000+0 0  9994
2 28252   0.0316 317.4852 0000951 141.4138 260.1241  1.00272752 73752
AMC-15                  
1 28446U 04041A   24189.67215225 -.00000092  00000+0  00000+0 0  9997
2 28446   0.0483 293.6627 0002251 154.3891 334.9804  1.00271453 72235
NSS-10                  
1 28526U 05003A   24189.47091380 -.00000258  00000+0  00000+0 0  9991
2 28526   4.6663  78.9687 0002659  24.7042 314.3031  1.00272595 46035
ASTRA 1KR               
1 29055U 06012A   24189.55367778  .00000116  00000+0  00000+0 0  9998
2 29055   0.0457 283.6899 0002216 241.6423 339.1656  1.00271933 38603
ASTRA 1L                
1 31306U 07016A   24189.48205270  .00000116  00000+0  00000+0 0  9995
2 31306   0.0611 318.9265 0000879  83.1421  76.5673  1.00272648 37880
ASTRA 4A                
1 32299U 07057A   24189.55071902  .00000029  00000+0  00000+0 0  9996
2 32299   0.0106  14.8711 0002702  79.2130  34.9610  1.00271586 44549
AMC-21                  
1 33275U 08038B   24189.51369056  .00000032  00000+0  00000+0 0  9991
2 33275   1.1086  89.7232 0002165  17.8208 238.4048  1.00271849 58373
ASTRA 1M                
1 33436U 08057A   24189.55376480  .00000116  00000+0  00000+0 0  9997
2 33436   0.0136  53.2159 0005351  70.6440  20.6820  1.00272378 38628
NSS-9                   
1 33749U 09008A   24189.50257922  .00000068  00000+0  00000+0 0  9991
2 33749   0.0484 292.5532 0001916 161.9694 195.4127  1.00271527 56404
SES-7 (PROTOSTAR 2)     
1 34941U 09027A   24190.07228979 -.00000348  00000+0  00000+0 0  9993
2 34941   0.0234  50.2071 0000200 181.1498 189.4267  1.00271864 55502
NSS-12                  
1 36032U 09058A   24189.56081365  .00000068  00000+0  00000+0 0  9996
2 36032   0.0858 278.1729 0003316 188.6909  78.0224  1.00271662 53801
SES-1                   
1 36516U 10016A   24189.81591000 -.00000118  00000+0  00000+0 0  9996
2 36516   0.0263 319.1752 0002467 141.5301  18.2635  1.00271635 52025
ASTRA 3B                
1 36581U 10021A   24190.12700645  .00000134  00000+0  00000+0 0  9994
2 36581   0.0374  53.4299 0004314  49.9858 252.3732  1.00272757 51546
SES-3                   
1 37748U 11035A   24190.17340338 -.00000104  00000+0  00000+0 0  9998
2 37748   0.0226  39.3132 0002894  69.6377 137.0695  1.00271382 47582
ASTRA 1N                
1 37775U 11041A   24189.76844729  .00000116  00000+0  00000+0 0  9993
2 37775   0.0520  16.5016 0004875  56.7525 148.7738  1.00270551 47281
SES-2                   
1 37809U 11049A   24189.84354890 -.00000199  00000+0  00000+0 0  9995
2 37809   0.0204 331.3511 0002423 141.1064  30.4945  1.00271589 46884
QUETZSAT 1              
1 37826U 11054A   24189.83799177 -.00000245  00000+0  00000+0 0  9992
2 37826   0.0127   0.1291 0002431  99.2790  51.5473  1.00272828 46989
SES-4                   
1 38087U 12007A   24189.61710296 -.00000172  00000+0  00000+0 0  9991
2 38087   0.0223  50.4763 0002473  58.4086  17.3315  1.00271723 45379
SES-5                   
1 38652U 12036A   24189.83714351  .00000031  00000+0  00000+0 0  9994
2 38652   0.0661 295.1321 0001946 165.9324 131.5538  1.00272924 43956
ASTRA 2F                
1 38778U 12051A   24189.55550525  .00000146  00000+0  00000+0 0  9997
2 38778   0.0718 247.7591 0002251 286.9166 339.4499  1.00271386 34011
SES-6                   
1 39172U 13026A   24189.82809316 -.00000264  00000+0  00000+0 0  9996
2 39172   0.0169  12.9239 0001848  66.3532 104.5924  1.00271309 40600
ASTRA 2E                
1 39285U 13056A   24189.55559228  .00000147  00000+0  00000+0 0  9997
2 39285   0.0536   4.5995 0002559  93.7992  56.0692  1.00271883 39319
SES-8                   
1 39460U 13071A   24189.56876507 -.00000273  00000+0  00000+0 0  9993
2 39460   0.0457 254.7872 0002536 208.2874 122.6712  1.00271443 37319
ASTRA 5B                
1 39617U 14011B   24189.76923050  .00000134  00000+0  00000+0 0  9995
2 39617   0.0694 308.6258 0001833 166.8876 111.1092  1.00269951 37756
